DMSP 5D-2 F14 (USA 131) 
1 24753U 97012A   20119.20689288 -.00000038  00000-0  37634-5 0  9996
2 24753  99.0247 135.2840 0008578 355.7832   4.3267 14.15887493191102
NOAA 15                 
1 25338U 98030A   20119.40469142  .00000045  00000-0  37445-4 0  9990
2 25338  98.7216 144.6991 0011263  53.1055 307.1155 14.25961053142108
DMSP 5D-3 F15 (USA 147) 
1 25991U 99067A   20119.45186215 -.00000101  00000-0 -27928-4 0  9998
2 25991  98.9653  90.4489 0008878 241.0754 286.5658 14.16488566 53362
METEOSAT-8 (MSG-1)      
1 27509U 02040B   20118.88425365  .00000143  00000-0  00000+0 0  9999
2 27509   6.6384  54.3000 0001358 332.8684 188.8345  1.00270697 64778
DMSP 5D-3 F16 (USA 172) 
1 28054U 03048A   20119.42559531 -.00000090  00000-0 -24174-4 0  9994
2 28054  98.9085  98.6654 0007809  13.0833 143.8081 14.13661062852820
NOAA 18                 
1 28654U 05018A   20119.43682716  .00000090  00000-0  73157-4 0  9995
2 28654  99.0486 175.3863 0014340  16.7568 343.4074 14.12506125769948
METEOSAT-9 (MSG-2)      
1 28912U 05049B   20119.11274354  .00000022  00000-0  00000-0 0  9994
2 28912   4.3196  70.3040 0001234 342.1970 208.1062  1.00266867 52560
HIMAWARI-7 (MTSAT-2)    
1 28937U 06004A   20119.24212653 -.00000239  00000-0  00000-0 0  9992
2 28937   0.0341  23.1056 0001420  33.2612  32.5124  1.00273755 52026
FORMOSAT-3 FM6          
1 29047U 06011A   20118.99517134  .00000063  00000-0  40714-4 0  9990
2 29047  71.9793 212.9753 0049594 150.5582 209.8365 14.28727841734119
FORMOSAT-3 FM1          
1 29048U 06011B   20119.01290238  .00000048  00000-0  35149-4 0  9997
2 29048  71.9642 123.9131 0041856 107.6553 252.9161 14.28693669736607
FORMOSAT-3 FM5          
1 29049U 06011C   20118.94668041  .00000036  00000-0  30425-4 0  9999
2 29049  72.0195 295.4049 0034098 135.9666 224.4196 14.28776052732386
FORMOSAT-3 FM3          
1 29050U 06011D   20119.36153005  .00000148  00000-0  41506-4 0  9993
2 29050  72.0151  85.7766 0048165  54.5909 305.9727 14.58902593749121
FORMOSAT-3 FM4          
1 29051U 06011E   20119.15782108  .00000076  00000-0  45224-4 0  9994
2 29051  72.0059 197.1302 0067948  10.3552 349.8965 14.28805465735007
FORMOSAT-3 FM2          
1 29052U 06011F   20118.88115961  .00000060  00000-0  39686-4 0  9999
2 29052  72.0338 271.7440 0038776  94.0150 266.5420 14.28909858733291
GOES 13                 
1 29155U 06018A   20118.91622608  .00000043  00000-0  00000-0 0  9990
2 29155   0.2617 270.0781 0004248 299.5162  37.7497  1.00272728 20881
METOP-A                 
1 29499U 06044A   20119.46039653 -.00000010  00000-0  14565-4 0  9993
2 29499  98.5278 167.9498 0001681  82.5370 337.8464 14.21496180701783
DMSP 5D-3 F17 (USA 191) 
1 29522U 06050A   20119.45832278 -.00000039  00000-0  23390-5 0  9998
2 29522  98.8047 136.6035 0009107 325.8421  34.2165 14.14022548695668
FENGYUN 3A              
1 32958U 08026A   20118.99351496  .00000011  00000-0  25095-4 0  9998
2 32958  98.4040 107.3505 0009727 119.4910 240.7237 14.18624114617567
FENGYUN 2E              
1 33463U 08066A   20118.96494684 -.00000196  00000-0  00000-0 0  9998
2 33463   4.2376  68.6386 0003333 295.6686 285.7298  1.00280124 41615
NOAA 19                 
1 33591U 09005A   20119.43716107  .00000048  00000-0  51242-4 0  9997
2 33591  99.1969 123.4821 0013406 212.5674 147.4671 14.12404935578337
GOES 14                 
1 35491U 09033A   20119.07257816 -.00000091  00000-0  00000-0 0  9997
2 35491   0.2012  97.8900 0008231 129.5092 271.0894  1.00271538 39655
METEOR-M 1              
1 35865U 09049A   20119.42758086  .00000016  00000-0  25958-4 0  9992
2 35865  98.4365 108.6017 0002209   9.1099 351.0119 14.22235328550808
DMSP 5D-3 F18 (USA 210) 
1 35951U 09057A   20119.41083899  .00000070  00000-0  60142-4 0  9993
2 35951  98.6435 110.9890 0011698 146.0747 214.1177 14.13261107542945
GOES 15                 
1 36411U 10008A   20119.47081878  .00000057  00000-0  00000+0 0  9991
2 36411   0.2353 275.2467 0002111 131.6276 211.3359  1.00267548 37203
COMS 1                  
1 36744U 10032A   20118.76872634 -.00000341  00000-0  00000-0 0  9994
2 36744   0.0322 107.9009 0000868 286.1337 227.0991  1.00270261 28617
FENGYUN 3B              
1 37214U 10059A   20119.45991944 -.00000008  00000-0  19010-4 0  9994
2 37214  99.0428 100.4335 0017882  50.7124 309.5628 14.15945948490604
SUOMI NPP               
1 37849U 11061A   20119.44287042  .00000017  00000-0  28705-4 0  9998
2 37849  98.7336  58.0443 0001415  74.4972  58.6418 14.19549921440529
FENGYUN 2F              
1 38049U 12002A   20118.97009376 -.00000354  00000-0  00000-0 0  9995
2 38049   1.9475  83.4684 0002664  63.9237 170.4516  1.00280086 30410
METEOSAT-10 (MSG-3)     
1 38552U 12035B   20119.30848181  .00000063  00000-0  00000+0 0  9998
2 38552   0.9962   8.7045 0000715 349.7935 338.4583  1.00269978 28745
METOP-B                 
1 38771U 12049A   20119.44281578 -.00000009  00000-0  15753-4 0  9999
2 38771  98.6961 179.5003 0002014 122.8634 299.6165 14.21491161394919
FENGYUN 3C              
1 39260U 13052A   20119.38042231 -.00000011  00000-0  15926-4 0  9997
2 39260  98.5557 171.7443 0011040   6.5228 353.6088 14.15836843341539
METEOR-M 2              
1 40069U 14037A   20119.39782703 -.00000020  00000-0  99614-5 0  9993
2 40069  98.5082 158.8129 0006865  70.9788 289.2135 14.20672097301104
HIMAWARI-8              
1 40267U 14060A   20119.40653498 -.00000273  00000-0  00000+0 0  9994
2 40267   0.0336 115.6743 0000508 257.6168 130.5716  1.00273649 20397
FENGYUN 2G              
1 40367U 14090A   20119.03935905 -.00000297  00000-0  00000-0 0  9990
2 40367   1.9641  95.2610 0003240 344.5895 250.3080  1.00268189 19567
METEOSAT-11 (MSG-4)     
1 40732U 15034A   20119.23852052 -.00000000  00000-0  00000-0 0  9990
2 40732   0.4723 215.4327 0000941 253.0750 193.7968  1.00275398 17572
ELEKTRO-L 2             
1 41105U 15074A   20119.09852933 -.00000093  00000-0  00000-0 0  9993
2 41105   1.0802  97.9020 0002663 329.8995 260.2030  1.00271351 16047
HIMAWARI-9              
1 41836U 16064A   20118.83226104 -.00000271  00000-0  00000-0 0  9998
2 41836   0.0455  84.8737 0000564 269.6278 302.1577  1.00270591 12711
GOES 16                 
1 41866U 16071A   20118.86096166 -.00000245  00000-0  00000-0 0  9996
2 41866   0.0130 288.3200 0000890 144.3164  18.4430  1.00270991 12646
FENGYUN 4A              
1 41882U 16077A   20119.30535894 -.00000328  00000-0  00000-0 0  9998
2 41882   0.1717 286.9332 0005624 219.2075 285.2606  1.00273498 12519
CYGFM05                 
1 41884U 16078A   20119.38834906  .00000357  00000-0  20621-4 0  9991
2 41884  34.9578  10.9421 0016289 315.8050  44.1360 15.14602648186514
CYGFM04                 
1 41885U 16078B   20119.11199000  .00000369  00000-0  20960-4 0  9991
2 41885  34.9509   6.1269 0014569 322.5567  37.4129 15.15112201186535
CYGFM02                 
1 41886U 16078C   20119.10482369  .00000335  00000-0  19184-4 0  9993
2 41886  34.9602   7.8681 0015376 318.9484  41.0070 15.15112905186526
CYGFM01                 
1 41887U 16078D   20119.41671892  .00000369  00000-0  21353-4 0  9997
2 41887  34.9545  11.8255 0016740 316.9320  43.0081 15.14415761186505
CYGFM08                 
1 41888U 16078E   20119.09272481  .00000345  00000-0  19813-4 0  9995
2 41888  34.9515   9.8322 0015861 320.2589  39.6959 15.14829722186481
CYGFM06                 
1 41889U 16078F   20119.08352395  .00000355  00000-0  20212-4 0  9994
2 41889  34.9595   6.6895 0014324 318.5036  41.4587 15.15106488186521
CYGFM07                 
1 41890U 16078G   20119.06192099  .00000361  00000-0  20531-4 0  9998
2 41890  34.9533   5.9403 0014058 321.2557  38.7145 15.15106003186527
CYGFM03                 
1 41891U 16078H   20119.12307008  .00000386  00000-0  21840-4 0  9995
2 41891  34.9566   5.7911 0013553 320.4499  39.5223 15.15101923186534
FENGYUN 3D              
1 43010U 17072A   20119.40101004 -.00000030  00000-0  67533-5 0  9991
2 43010  98.7481  59.3109 0000796 174.0443 186.0739 14.19740610127095
NOAA 20                 
1 43013U 17073A   20119.31165326  .00000012  00000-0  26362-4 0  9995
2 43013  98.7148  58.0441 0001476  96.6218 263.5126 14.19552413126540
GOES 17                 
1 43226U 18022A   20119.46396314  .00000100  00000-0  00000+0 0  9999
2 43226   0.0181 276.8696 0000441 106.8099 223.0426  1.00270978  7960
FENGYUN 2H              
1 43491U 18050A   20119.09627524 -.00000126  00000-0  00000-0 0  9993
2 43491   0.7772 275.8854 0002724 215.0986 199.3582  1.00275918  7031
METOP-C                 
1 43689U 18087A   20119.46769092 -.00000009  00000-0  15785-4 0  9990
2 43689  98.7024 179.7770 0003228 118.2901 241.8602 14.21488417 76496
GEO-KOMPSAT-2A          
1 43823U 18100A   20118.82973122 -.00000340  00000-0  00000-0 0  9994
2 43823   0.0488  73.8934 0001866 359.4673 209.8736  1.00271446  5133
IOD-1 GEMS              
1 44385U 98067QK  20118.87324066  .00017314  00000-0  22582-3 0  9990
2 44385  51.6403 226.6799 0001927 126.8829 233.2341 15.58801198 46601
METEOR-M2 2             
1 44387U 19038A   20119.39747246 -.00000022  00000-0  92010-5 0  9994
2 44387  98.6153  80.4457 0002116  50.5255 309.6110 14.23678325 42412
